[
    {
        "Altitude(m)": 717878.2058114442,
        "Argument of Periapsis(deg)": 0.009112096949301655,
        "Eccentricity": 0.0,
        "Inclination(deg)": 45.0,
        "Latitude(deg)": -45.14447285798843,
        "Longitude(deg)": -139.1258199246583,
        "Mean Anomaly(deg)": 271.0447733179847,
        "RAAN(deg)": 49.99139844683344,
        "Satellite Name": "Constellation 1 236",
        "Satellite Number": 236,
        "Semi-Major Axis(m)": 7083131.272910544,
        "Time(s)": 152
    },
    {
        "Altitude(m)": 717877.7272748883,
        "Argument of Periapsis(deg)": 0.009172044955547059,
        "Eccentricity": 0.0,
        "Inclination(deg)": 45.0,
        "Latitude(deg)": -45.143327990325915,
        "Longitude(deg)": -139.04432169961066,
        "Mean Anomaly(deg)": 271.1054744582346,
        "RAAN(deg)": 49.99134185766787,
        "Satellite Name": "Constellation 1 236",
        "Satellite Number": 236,
        "Semi-Major Axis(m)": 7083131.272910544,
        "Time(s)": 153
    },
    {
        "Altitude(m)": 717877.2223479329,
        "Argument of Periapsis(deg)": 0.009231992961792466,
        "Eccentricity": 0.0,
        "Inclination(deg)": 45.0,
        "Latitude(deg)": -45.14211898438912,
        "Longitude(deg)": -138.96282698948238,
        "Mean Anomaly(deg)": 271.1661755984845,
        "RAAN(deg)": 49.9912852685023,
        "Satellite Name": "Constellation 1 236",
        "Satellite Number": 236,
        "Semi-Major Axis(m)": 7083131.272910544,
        "Time(s)": 154
    },
    {
        "Altitude(m)": 717876.6910324149,
        "Argument of Periapsis(deg)": 0.009291940968037872,
        "Eccentricity": 0.0,
        "Inclination(deg)": 45.0,
        "Latitude(deg)": -45.14084584552873,
        "Longitude(deg)": -138.88133598551047,
        "Mean Anomaly(deg)": 271.22687673873435,
        "RAAN(deg)": 49.99122867933673,
        "Satellite Name": "Constellation 1 236",
        "Satellite Number": 236,
        "Semi-Major Axis(m)": 7083131.272910544,
        "Time(s)": 155
    },
    {
        "Altitude(m)": 717876.1333302831,
        "Argument of Periapsis(deg)": 0.009351888974283276,
        "Eccentricity": 0.0,
        "Inclination(deg)": 45.0,
        "Latitude(deg)": -45.139508579378344,
        "Longitude(deg)": -138.7998490469628,
        "Mean Anomaly(deg)": 271.2875778789843,
        "RAAN(deg)": 49.991172090171155,
        "Satellite Name": "Constellation 1 236",
        "Satellite Number": 236,
        "Semi-Major Axis(m)": 7083131.272910544,
        "Time(s)": 156
    },
    {
        "Altitude(m)": 717875.5492435779,
        "Argument of Periapsis(deg)": 0.00941183698052868,
        "Eccentricity": 0.0,
        "Inclination(deg)": 45.0,
        "Latitude(deg)": -45.13810719185553,
        "Longitude(deg)": -138.71836602874663,
        "Mean Anomaly(deg)": 271.34827901923416,
        "RAAN(deg)": 49.99111550100558,
        "Satellite Name": "Constellation 1 236",
        "Satellite Number": 236,
        "Semi-Major Axis(m)": 7083131.272910544,
        "Time(s)": 157
    },
    {
        "Altitude(m)": 717874.9387744403,
        "Argument of Periapsis(deg)": 0.009471784986774088,
        "Eccentricity": 0.0,
        "Inclination(deg)": 45.0,
        "Latitude(deg)": -45.13664168916007,
        "Longitude(deg)": -138.6368872899865,
        "Mean Anomaly(deg)": 271.40898015948403,
        "RAAN(deg)": 49.99105891184002,
        "Satellite Name": "Constellation 1 236",
        "Satellite Number": 236,
        "Semi-Major Axis(m)": 7083131.272910544,
        "Time(s)": 158
    },
    {
        "Altitude(m)": 717874.3019250989,
        "Argument of Periapsis(deg)": 0.009531732993019492,
        "Eccentricity": 0.0,
        "Inclination(deg)": 45.0,
        "Latitude(deg)": -45.13511207777484,
        "Longitude(deg)": -138.55541302163425,
        "Mean Anomaly(deg)": 271.46968129973396,
        "RAAN(deg)": 49.99100232267445,
        "Satellite Name": "Constellation 1 236",
        "Satellite Number": 236,
        "Semi-Major Axis(m)": 7083131.272910544,
        "Time(s)": 159
    },
    {
        "Altitude(m)": 717873.6386978902,
        "Argument of Periapsis(deg)": 0.009591680999264898,
        "Eccentricity": 0.0,
        "Inclination(deg)": 45.0,
        "Latitude(deg)": -45.133518364465424,
        "Longitude(deg)": -138.47394341456132,
        "Mean Anomaly(deg)": 271.5303824399839,
        "RAAN(deg)": 49.99094573350888,
        "Satellite Name": "Constellation 1 236",
        "Satellite Number": 236,
        "Semi-Major Axis(m)": 7083131.272910544,
        "Time(s)": 160
    },
    {
        "Altitude(m)": 717872.9490952464,
        "Argument of Periapsis(deg)": 0.009651629005510304,
        "Eccentricity": 0.0,
        "Inclination(deg)": 45.0,
        "Latitude(deg)": -45.131860556280046,
        "Longitude(deg)": -138.3924786595563,
        "Mean Anomaly(deg)": 271.59108358023377,
        "RAAN(deg)": 49.990889144343306,
        "Satellite Name": "Constellation 1 236",
        "Satellite Number": 236,
        "Semi-Major Axis(m)": 7083131.272910544,
        "Time(s)": 161
    },
    {
        "Altitude(m)": 717872.233119693,
        "Argument of Periapsis(deg)": 0.00971157701175571,
        "Eccentricity": 0.0,
        "Inclination(deg)": 45.0,
        "Latitude(deg)": -45.13013866054934,
        "Longitude(deg)": -138.3110189473204,
        "Mean Anomaly(deg)": 271.65178472048365,
        "RAAN(deg)": 49.99083255517775,
        "Satellite Name": "Constellation 1 236",
        "Satellite Number": 236,
        "Semi-Major Axis(m)": 7083131.272910544,
        "Time(s)": 162
    },
    {
        "Altitude(m)": 717871.4907738549,
        "Argument of Periapsis(deg)": 0.009771525018001118,
        "Eccentricity": 0.0,
        "Inclination(deg)": 45.0,
        "Latitude(deg)": -45.12835268488598,
        "Longitude(deg)": -138.229564636563,
        "Mean Anomaly(deg)": 271.71248586073347,
        "RAAN(deg)": 49.99077596601217,
        "Satellite Name": "Constellation 1 236",
        "Satellite Number": 236,
        "Semi-Major Axis(m)": 7083131.272910544,
        "Time(s)": 163
    },
    {
        "Altitude(m)": 717870.7220604557,
        "Argument of Periapsis(deg)": 0.00983147302424652,
        "Eccentricity": 0.0,
        "Inclination(deg)": 45.0,
        "Latitude(deg)": -45.12650263718543,
        "Longitude(deg)": -138.14811558160713,
        "Mean Anomaly(deg)": 271.77318700098346,
        "RAAN(deg)": 49.990719376846606,
        "Satellite Name": "Constellation 1 236",
        "Satellite Number": 236,
        "Semi-Major Axis(m)": 7083131.272910544,
        "Time(s)": 164
    },
    {
        "Altitude(m)": 717869.9269823156,
        "Argument of Periapsis(deg)": 0.009891421030491928,
        "Eccentricity": 0.0,
        "Inclination(deg)": 45.0,
        "Latitude(deg)": -45.12458852562449,
        "Longitude(deg)": -138.06667214097172,
        "Mean Anomaly(deg)": 271.8338881412334,
        "RAAN(deg)": 49.99066278768103,
        "Satellite Name": "Constellation 1 236",
        "Satellite Number": 236,
        "Semi-Major Axis(m)": 7083131.272910544,
        "Time(s)": 165
    },
    {
        "Altitude(m)": 717869.1055423509,
        "Argument of Periapsis(deg)": 0.009951369036737332,
        "Eccentricity": 0.0,
        "Inclination(deg)": 45.0,
        "Latitude(deg)": -45.122610358661895,
        "Longitude(deg)": -137.98523450497783,
        "Mean Anomaly(deg)": 271.89458928148326,
        "RAAN(deg)": 49.990606198515465,
        "Satellite Name": "Constellation 1 236",
        "Satellite Number": 236,
        "Semi-Major Axis(m)": 7083131.272910544,
        "Time(s)": 166
    },
    {
        "Altitude(m)": 717868.2577435797,
        "Argument of Periapsis(deg)": 0.010011317042982738,
        "Eccentricity": 0.0,
        "Inclination(deg)": 45.0,
        "Latitude(deg)": -45.12056814503799,
        "Longitude(deg)": -137.90380286384288,
        "Mean Anomaly(deg)": 271.95529042173314,
        "RAAN(deg)": 49.99054960934989,
        "Satellite Name": "Constellation 1 236",
        "Satellite Number": 236,
        "Semi-Major Axis(m)": 7083131.272910544,
        "Time(s)": 167
    },
    {
        "Altitude(m)": 717867.3835891101,
        "Argument of Periapsis(deg)": 0.010071265049228144,
        "Eccentricity": 0.0,
        "Inclination(deg)": 45.0,
        "Latitude(deg)": -45.118461893774544,
        "Longitude(deg)": -137.82237740767738,
        "Mean Anomaly(deg)": 272.01599156198307,
        "RAAN(deg)": 49.990493020184324,
        "Satellite Name": "Constellation 1 236",
        "Satellite Number": 236,
        "Semi-Major Axis(m)": 7083131.272910544,
        "Time(s)": 168
    },
    {
        "Altitude(m)": 717866.4830821543,
        "Argument of Periapsis(deg)": 0.01013121305547355,
        "Eccentricity": 0.0,
        "Inclination(deg)": 45.0,
        "Latitude(deg)": -45.11629161417454,
        "Longitude(deg)": -137.7409583264819,
        "Mean Anomaly(deg)": 272.07669270223295,
        "RAAN(deg)": 49.99043643101875,
        "Satellite Name": "Constellation 1 236",
        "Satellite Number": 236,
        "Semi-Major Axis(m)": 7083131.272910544,
        "Time(s)": 169
    },
    {
        "Altitude(m)": 717865.5562260157,
        "Argument of Periapsis(deg)": 0.010191161061718957,
        "Eccentricity": 0.0,
        "Inclination(deg)": 45.0,
        "Latitude(deg)": -45.11405731582202,
        "Longitude(deg)": -137.65954581014262,
        "Mean Anomaly(deg)": 272.1373938424828,
        "RAAN(deg)": 49.99037984185319,
        "Satellite Name": "Constellation 1 236",
        "Satellite Number": 236,
        "Semi-Major Axis(m)": 7083131.272910544,
        "Time(s)": 170
    }
]